ONEWEB-0615             
1 54676U 22166AL  25276.11114548  .00000012  00000+0 -33020-5 0  9998
2 54676  87.9182 295.2893 0001899  92.2907 267.8445 13.21824691137485
ONEWEB-0655             
1 54677U 22166AM  25276.31141780  .00000068  00000+0  13261-3 0  9992
2 54677  87.9176 295.2541 0001615  87.4071 272.7248 13.21830296137500
ONEWEB-0659             
1 54678U 22166AN  25276.10168726  .00000068  00000+0  13255-3 0  9992
2 54678  87.9180 295.2965 0002069  94.1415 265.9955 13.21825260137567
ONEWEB-0685             
1 54679U 22166AP  25276.10322193  .00000005  00000+0 -19900-4 0  9999
2 54679  87.9180 295.2923 0001901  84.0732 276.0619 13.21829422137458
ONEWEB-0712             
1 54680U 22166AQ  25276.03829563 -.00000015  00000+0 -74093-4 0  9992
2 54680  87.8983 280.0060 0001315  89.5833 270.5449 13.16592721138224
ONEWEB-0714             
1 54681U 22166AR  25276.10956744  .00000030  00000+0  39973-4 0  9996
2 54681  87.9180 295.2847 0001794  87.8459 272.2880 13.21824397137570
ONEWEB-0532             
1 55140U 23004A   25276.29316383  .00000113  00000+0  25779-3 0  9998
2 55140  87.9086  56.9456 0002096  89.7345 270.4026 13.17649416133755
ONEWEB-0533             
1 55141U 23004B   25276.30946566 -.00000334  00000+0 -96410-3 0  9990
2 55141  87.8939  41.6925 0001578  93.4886 266.6423 13.12442016134368
ONEWEB-0541             
1 55142U 23004C   25275.68069131 -.00000048  00000+0 -17263-3 0  9996
2 55142  87.8797  72.3366 0001851  95.6814 264.4525 13.11413724132191
ONEWEB-0543             
1 55143U 23004D   25276.32186743  .00000110  00000+0  24579-3 0  9994
2 55143  87.9199  26.5145 0001524 103.5313 256.5989 13.18687489135844
ONEWEB-0544             
1 55144U 23004E   25276.23939060  .00000068  00000+0  14035-3 0  9991
2 55144  87.9198  26.5208 0001735 107.4666 252.6656 13.18686389135837
ONEWEB-0560             
1 55145U 23004F   25276.30866920  .00000108  00000+0  24035-3 0  9990
2 55145  87.9209  26.4876 0001791 109.5806 250.5520 13.18686941135855
ONEWEB-0565             
1 55146U 23004G   25276.30205890  .00000018  00000+0  12899-4 0  9990
2 55146  87.9201  26.5417 0002291 107.0577 253.0806 13.18688346135849
ONEWEB-0567             
1 55147U 23004H   25276.29546154 -.00000026  00000+0 -99178-4 0  9996
2 55147  87.9206  26.5042 0002061 109.5151 250.6204 13.18687994135842
ONEWEB-0569             
1 55148U 23004J   25276.28961639 -.00000197  00000+0 -57496-3 0  9990
2 55148  87.9054  11.2470 0002187 127.9402 232.1925 13.13468369136453
ONEWEB-0570             
1 55149U 23004K   25276.28557950  .00000014  00000+0  25618-5 0  9997
2 55149  87.9205  26.5065 0002380  96.0237 264.1167 13.18685934135836
ONEWEB-0571             
1 55150U 23004L   25276.27896976  .00000087  00000+0  18675-3 0  9995
2 55150  87.9195  26.5117 0002955 119.9319 240.2107 13.18689985135848
