[{"OBJECT_NAME":"ONEWEB-0615","OBJECT_ID":"2022-166AL","EPOCH":"2025-10-03T02:40:02.969472","MEAN_MOTION":13.21824691,"ECCENTRICITY":0.00018999,"INCLINATION":87.9182,"RA_OF_ASC_NODE":295.2893,"ARG_OF_PERICENTER":92.2907,"MEAN_ANOMALY":267.8445,"EPHEMERIS_TYPE":0,"CLASSIFICATION_TYPE":"U","NORAD_CAT_ID":54676,"ELEMENT_SET_NO":999,"REV_AT_EPOCH":13748,"BSTAR":-3.301995e-6,"MEAN_MOTION_DOT":1.2e-7,"MEAN_MOTION_DDOT":0},{"OBJECT_NAME":"ONEWEB-0655","OBJECT_ID":"2022-166AM","EPOCH":"2025-10-03T07:28:26.497920","MEAN_MOTION":13.21830296,"ECCENTRICITY":0.00016159,"INCLINATION":87.9176,"RA_OF_ASC_NODE":295.2541,"ARG_OF_PERICENTER":87.4071,"MEAN_ANOMALY":272.7248,"EPHEMERIS_TYPE":0,"CLASSIFICATION_TYPE":"U","NORAD_CAT_ID":54677,"ELEMENT_SET_NO":999,"REV_AT_EPOCH":13750,"BSTAR":0.00013261023,"MEAN_MOTION_DOT":6.8e-7,"MEAN_MOTION_DDOT":0},{"OBJECT_NAME":"ONEWEB-0659","OBJECT_ID":"2022-166AN","EPOCH":"2025-10-03T02:26:25.779264","MEAN_MOTION":13.2182526,"ECCENTRICITY":0.00020691,"INCLINATION":87.918,"RA_OF_ASC_NODE":295.2965,"ARG_OF_PERICENTER":94.1415,"MEAN_ANOMALY":265.9955,"EPHEMERIS_TYPE":0,"CLASSIFICATION_TYPE":"U","NORAD_CAT_ID":54678,"ELEMENT_SET_NO":999,"REV_AT_EPOCH":13756,"BSTAR":0.00013255275,"MEAN_MOTION_DOT":6.8e-7,"MEAN_MOTION_DDOT":0},{"OBJECT_NAME":"ONEWEB-0685","OBJECT_ID":"2022-166AP","EPOCH":"2025-10-03T02:28:38.374752","MEAN_MOTION":13.21829422,"ECCENTRICITY":0.00019017,"INCLINATION":87.918,"RA_OF_ASC_NODE":295.2923,"ARG_OF_PERICENTER":84.0732,"MEAN_ANOMALY":276.0619,"EPHEMERIS_TYPE":0,"CLASSIFICATION_TYPE":"U","NORAD_CAT_ID":54679,"ELEMENT_SET_NO":999,"REV_AT_EPOCH":13745,"BSTAR":-1.9899584e-5,"MEAN_MOTION_DOT":5.0e-8,"MEAN_MOTION_DDOT":0},{"OBJECT_NAME":"ONEWEB-0712","OBJECT_ID":"2022-166AQ","EPOCH":"2025-10-03T00:55:08.742432","MEAN_MOTION":13.16592721,"ECCENTRICITY":0.00013159,"INCLINATION":87.8983,"RA_OF_ASC_NODE":280.006,"ARG_OF_PERICENTER":89.5833,"MEAN_ANOMALY":270.5449,"EPHEMERIS_TYPE":0,"CLASSIFICATION_TYPE":"U","NORAD_CAT_ID":54680,"ELEMENT_SET_NO":999,"REV_AT_EPOCH":13822,"BSTAR":-7.4093224e-5,"MEAN_MOTION_DOT":-1.5e-7,"MEAN_MOTION_DDOT":0},{"OBJECT_NAME":"ONEWEB-0714","OBJECT_ID":"2022-166AR","EPOCH":"2025-10-03T02:37:46.626816","MEAN_MOTION":13.21824397,"ECCENTRICITY":0.00017944,"INCLINATION":87.918,"RA_OF_ASC_NODE":295.2847,"ARG_OF_PERICENTER":87.8459,"MEAN_ANOMALY":272.288,"EPHEMERIS_TYPE":0,"CLASSIFICATION_TYPE":"U","NORAD_CAT_ID":54681,"ELEMENT_SET_NO":999,"REV_AT_EPOCH":13757,"BSTAR":3.99733e-5,"MEAN_MOTION_DOT":3.0e-7,"MEAN_MOTION_DDOT":0},{"OBJECT_NAME":"ONEWEB-0532","OBJECT_ID":"2023-004A","EPOCH":"2025-10-03T07:02:09.354912","MEAN_MOTION":13.17649416,"ECCENTRICITY":0.0002096,"INCLINATION":87.9086,"RA_OF_ASC_NODE":56.9456,"ARG_OF_PERICENTER":89.7345,"MEAN_ANOMALY":270.4026,"EPHEMERIS_TYPE":0,"CLASSIFICATION_TYPE":"U","NORAD_CAT_ID":55140,"ELEMENT_SET_NO":999,"REV_AT_EPOCH":13375,"BSTAR":0.00025778822,"MEAN_MOTION_DOT":1.13e-6,"MEAN_MOTION_DDOT":0},{"OBJECT_NAME":"ONEWEB-0533","OBJECT_ID":"2023-004B","EPOCH":"2025-10-03T07:25:37.833024","MEAN_MOTION":13.12442016,"ECCENTRICITY":0.00015785,"INCLINATION":87.8939,"RA_OF_ASC_NODE":41.6925,"ARG_OF_PERICENTER":93.4886,"MEAN_ANOMALY":266.6423,"EPHEMERIS_TYPE":0,"CLASSIFICATION_TYPE":"U","NORAD_CAT_ID":55141,"ELEMENT_SET_NO":999,"REV_AT_EPOCH":13436,"BSTAR":-0.00096410163,"MEAN_MOTION_DOT":-3.34e-6,"MEAN_MOTION_DDOT":0},{"OBJECT_NAME":"ONEWEB-0541","OBJECT_ID":"2023-004C","EPOCH":"2025-10-02T16:20:11.729184","MEAN_MOTION":13.11413724,"ECCENTRICITY":0.0001851,"INCLINATION":87.8797,"RA_OF_ASC_NODE":72.3366,"ARG_OF_PERICENTER":95.6814,"MEAN_ANOMALY":264.4525,"EPHEMERIS_TYPE":0,"CLASSIFICATION_TYPE":"U","NORAD_CAT_ID":55142,"ELEMENT_SET_NO":999,"REV_AT_EPOCH":13219,"BSTAR":-0.00017263292,"MEAN_MOTION_DOT":-4.8e-7,"MEAN_MOTION_DDOT":0},{"OBJECT_NAME":"ONEWEB-0543","OBJECT_ID":"2023-004D","EPOCH":"2025-10-03T07:43:29.345952","MEAN_MOTION":13.18687489,"ECCENTRICITY":0.00015245,"INCLINATION":87.9199,"RA_OF_ASC_NODE":26.5145,"ARG_OF_PERICENTER":103.5313,"MEAN_ANOMALY":256.5989,"EPHEMERIS_TYPE":0,"CLASSIFICATION_TYPE":"U","NORAD_CAT_ID":55143,"ELEMENT_SET_NO":999,"REV_AT_EPOCH":13584,"BSTAR":0.00024578768,"MEAN_MOTION_DOT":1.1e-6,"MEAN_MOTION_DDOT":0},{"OBJECT_NAME":"ONEWEB-0544","OBJECT_ID":"2023-004E","EPOCH":"2025-10-03T05:44:43.347840","MEAN_MOTION":13.18686389,"ECCENTRICITY":0.00017353,"INCLINATION":87.9198,"RA_OF_ASC_NODE":26.5208,"ARG_OF_PERICENTER":107.4666,"MEAN_ANOMALY":252.6656,"EPHEMERIS_TYPE":0,"CLASSIFICATION_TYPE":"U","NORAD_CAT_ID":55144,"ELEMENT_SET_NO":999,"REV_AT_EPOCH":13583,"BSTAR":0.00014034958,"MEAN_MOTION_DOT":6.8e-7,"MEAN_MOTION_DDOT":0},{"OBJECT_NAME":"ONEWEB-0560","OBJECT_ID":"2023-004F","EPOCH":"2025-10-03T07:24:29.018880","MEAN_MOTION":13.18686941,"ECCENTRICITY":0.00017913,"INCLINATION":87.9209,"RA_OF_ASC_NODE":26.4876,"ARG_OF_PERICENTER":109.5806,"MEAN_ANOMALY":250.552,"EPHEMERIS_TYPE":0,"CLASSIFICATION_TYPE":"U","NORAD_CAT_ID":55145,"ELEMENT_SET_NO":999,"REV_AT_EPOCH":13585,"BSTAR":0.00024035242,"MEAN_MOTION_DOT":1.08e-6,"MEAN_MOTION_DDOT":0},{"OBJECT_NAME":"ONEWEB-0565","OBJECT_ID":"2023-004G","EPOCH":"2025-10-03T07:14:57.888960","MEAN_MOTION":13.18688346,"ECCENTRICITY":0.00022913,"INCLINATION":87.9201,"RA_OF_ASC_NODE":26.5417,"ARG_OF_PERICENTER":107.0577,"MEAN_ANOMALY":253.0806,"EPHEMERIS_TYPE":0,"CLASSIFICATION_TYPE":"U","NORAD_CAT_ID":55146,"ELEMENT_SET_NO":999,"REV_AT_EPOCH":13584,"BSTAR":1.2899006e-5,"MEAN_MOTION_DOT":1.8e-7,"MEAN_MOTION_DDOT":0},{"OBJECT_NAME":"ONEWEB-0567","OBJECT_ID":"2023-004H","EPOCH":"2025-10-03T07:05:27.877056","MEAN_MOTION":13.18687994,"ECCENTRICITY":0.00020617,"INCLINATION":87.9206,"RA_OF_ASC_NODE":26.5042,"ARG_OF_PERICENTER":109.5151,"MEAN_ANOMALY":250.6204,"EPHEMERIS_TYPE":0,"CLASSIFICATION_TYPE":"U","NORAD_CAT_ID":55147,"ELEMENT_SET_NO":999,"REV_AT_EPOCH":13584,"BSTAR":-9.9178192e-5,"MEAN_MOTION_DOT":-2.6e-7,"MEAN_MOTION_DDOT":0},{"OBJECT_NAME":"ONEWEB-0569","OBJECT_ID":"2023-004J","EPOCH":"2025-10-03T06:57:02.856096","MEAN_MOTION":13.13468369,"ECCENTRICITY":0.0002187,"INCLINATION":87.9054,"RA_OF_ASC_NODE":11.247,"ARG_OF_PERICENTER":127.9402,"MEAN_ANOMALY":232.1925,"EPHEMERIS_TYPE":0,"CLASSIFICATION_TYPE":"U","NORAD_CAT_ID":55148,"ELEMENT_SET_NO":999,"REV_AT_EPOCH":13645,"BSTAR":-0.00057496273,"MEAN_MOTION_DOT":-1.97e-6,"MEAN_MOTION_DDOT":0},{"OBJECT_NAME":"ONEWEB-0570","OBJECT_ID":"2023-004K","EPOCH":"2025-10-03T06:51:14.068800","MEAN_MOTION":13.18685934,"ECCENTRICITY":0.00023808,"INCLINATION":87.9205,"RA_OF_ASC_NODE":26.5065,"ARG_OF_PERICENTER":96.0237,"MEAN_ANOMALY":264.1167,"EPHEMERIS_TYPE":0,"CLASSIFICATION_TYPE":"U","NORAD_CAT_ID":55149,"ELEMENT_SET_NO":999,"REV_AT_EPOCH":13583,"BSTAR":2.561848e-6,"MEAN_MOTION_DOT":1.4e-7,"MEAN_MOTION_DDOT":0},{"OBJECT_NAME":"ONEWEB-0571","OBJECT_ID":"2023-004L","EPOCH":"2025-10-03T06:41:42.987264","MEAN_MOTION":13.18689985,"ECCENTRICITY":0.00029558,"INCLINATION":87.9195,"RA_OF_ASC_NODE":26.5117,"ARG_OF_PERICENTER":119.9319,"MEAN_ANOMALY":240.2107,"EPHEMERIS_TYPE":0,"CLASSIFICATION_TYPE":"U","NORAD_CAT_ID":55150,"ELEMENT_SET_NO":999,"REV_AT_EPOCH":13584,"BSTAR":0.0001867516,"MEAN_MOTION_DOT":8.7e-7,"MEAN_MOTION_DDOT":0}]
